{
    "links": {
        "self": "http://www.neowsapp.com/rest/v1/neo/3837802?api_key=iIulBulltgU6a56xZRHN4H3l9WmuAYTsLGpBGhQ2"
    },
    "id": "3837802",
    "neo_reference_id": "3837802",
    "name": "(2019 AT9)",
    "designation": "2019 AT9",
    "nasa_jpl_url": "http://ssd.jpl.nasa.gov/sbdb.cgi?sstr=3837802",
    "absolute_magnitude_h": 24.2,
    "estimated_diameter": {
        "kilometers": {
            "estimated_diameter_min": 0.0384197891,
            "estimated_diameter_max": 0.0859092601
        },
        "meters": {
            "estimated_diameter_min": 38.4197891064,
            "estimated_diameter_max": 85.9092601232
        },
        "miles": {
            "estimated_diameter_min": 0.0238729428,
            "estimated_diameter_max": 0.0533815229
        },
        "feet": {
            "estimated_diameter_min": 126.0491808919,
            "estimated_diameter_max": 281.8545369825
        }
    },
    "is_potentially_hazardous_asteroid": false,
    "close_approach_data": [
        {
            "close_approach_date": "2016-05-25",
            "close_approach_date_full": "2016-May-25 17:59",
            "epoch_date_close_approach": 1464199140000,
            "relative_velocity": {
                "kilometers_per_second": "20.8080017873",
                "kilometers_per_hour": "74908.806434266",
                "miles_per_hour": "46545.4191980026"
            },
            "miss_distance": {
                "astronomical": "0.4121839759",
                "lunar": "160.3395666251",
                "kilometers": "61661844.842771333",
                "miles": "38314893.7000690754"
            },
            "orbiting_body": "Earth"
        },
        {
            "close_approach_date": "2019-02-12",
            "close_approach_date_full": "2019-Feb-12 00:03",
            "epoch_date_close_approach": 1549929780000,
            "relative_velocity": {
                "kilometers_per_second": "10.2978009732",
                "kilometers_per_hour": "37072.0835034998",
                "miles_per_hour": "23035.1509969386"
            },
            "miss_distance": {
                "astronomical": "0.0647849634",
                "lunar": "25.2013507626",
                "kilometers": "9691692.532667958",
                "miles": "6022138.4895275004"
            },
            "orbiting_body": "Earth"
        }
    ],
    "orbital_data": {
        "orbit_id": "8",
        "orbit_determination_date": "2019-02-09 07:02:24",
        "first_observation_date": "2019-01-09",
        "last_observation_date": "2019-02-08",
        "data_arc_in_days": 30,
        "observations_used": 36,
        "orbit_uncertainty": "7",
        "minimum_orbit_intersection": ".0579211",
        "jupiter_tisserand_invariant": "3.621",
        "epoch_osculation": "2459000.5",
        "eccentricity": ".5261949187817389",
        "semi_major_axis": "2.02809012969333",
        "inclination": "6.330609287689976",
        "ascending_node_longitude": "298.1470406616016",
        "orbital_period": "1054.943751238377",
        "perihelion_distance": ".9609194086173023",
        "perihelion_argument": "239.9264096431194",
        "aphelion_distance": "3.095260850769359",
        "perihelion_time": "2458553.798131412703",
        "mean_anomaly": "152.4372010381145",
        "mean_motion": ".3412504217190759",
        "equinox": "J2000",
        "orbit_class": {
            "orbit_class_type": "APO",
            "orbit_class_description": "Near-Earth asteroid orbits which cross the Earth’s orbit similar to that of 1862 Apollo",
            "orbit_class_range": "a (semi-major axis) > 1.0 AU; q (perihelion) < 1.017 AU"
        }
    },
    "is_sentry_object": false
}